[
    {
        "Altitude(m)": 585884.684110518,
        "Argument of Periapsis(deg)": -0.037671934638287344,
        "Eccentricity": 0.0,
        "Inclination(deg)": 97.0,
        "Latitude(deg)": -58.08240764374817,
        "Longitude(deg)": -62.622320813679174,
        "Mean Anomaly(deg)": 301.4892387819791,
        "RAAN(deg)": 30.009911756030853,
        "Satellite Name": "Starlink Shell 3 1681",
        "Satellite Number": 1681,
        "Semi-Major Axis(m)": 6938478.169268562,
        "Time(s)": 950
    },
    {
        "Altitude(m)": 585667.7936807777,
        "Argument of Periapsis(deg)": -0.03806848131869037,
        "Eccentricity": 0.0,
        "Inclination(deg)": 97.0,
        "Latitude(deg)": -57.47652512840286,
        "Longitude(deg)": -62.92931257530782,
        "Mean Anomaly(deg)": 302.11471497968415,
        "RAAN(deg)": 30.01001609030486,
        "Satellite Name": "Starlink Shell 3 1681",
        "Satellite Number": 1681,
        "Semi-Major Axis(m)": 6938478.169268562,
        "Time(s)": 960
    },
    {
        "Altitude(m)": 585448.2745952496,
        "Argument of Periapsis(deg)": -0.0384650279990934,
        "Eccentricity": 0.0,
        "Inclination(deg)": 97.0,
        "Latitude(deg)": -56.8700220143322,
        "Longitude(deg)": -63.22767795664905,
        "Mean Anomaly(deg)": 302.7401911773892,
        "RAAN(deg)": 30.01012042457887,
        "Satellite Name": "Starlink Shell 3 1681",
        "Satellite Number": 1681,
        "Semi-Major Axis(m)": 6938478.169268562,
        "Time(s)": 970
    },
    {
        "Altitude(m)": 585226.2148141937,
        "Argument of Periapsis(deg)": -0.03886157467949641,
        "Eccentricity": 0.0,
        "Inclination(deg)": 97.0,
        "Latitude(deg)": -56.26292654243596,
        "Longitude(deg)": -63.517879340596075,
        "Mean Anomaly(deg)": 303.3656673750943,
        "RAAN(deg)": 30.01022475885288,
        "Satellite Name": "Starlink Shell 3 1681",
        "Satellite Number": 1681,
        "Semi-Major Axis(m)": 6938478.169268562,
        "Time(s)": 980
    },
    {
        "Altitude(m)": 585001.7032648701,
        "Argument of Periapsis(deg)": -0.03925812135989944,
        "Eccentricity": 0.0,
        "Inclination(deg)": 97.0,
        "Latitude(deg)": -55.65526496295986,
        "Longitude(deg)": -63.80034713825406,
        "Mean Anomaly(deg)": 303.99114357279933,
        "RAAN(deg)": 30.010329093126884,
        "Satellite Name": "Starlink Shell 3 1681",
        "Satellite Number": 1681,
        "Semi-Major Axis(m)": 6938478.169268562,
        "Time(s)": 990
    }
]